0 GLOBALSTAR M091
1 37741U 11033C   13282.10159701 -.00000071  00000-0  18127-3 0  6864
2 37741 051.9997 310.1809 0000341 067.1409 310.1426 12.62267778104315
0 GLOBALSTAR M091
1 37741U 11033C   13283.48042586 -.00000067  00000-0  20779-3 0  6870
2 37741 051.9995 305.9829 0000352 062.7229 103.2322 12.62267818104489
0 GLOBALSTAR M091
1 37741U 11033C   13284.50937272 -.00000076  00000-0  15669-3 0  6882
2 37741 051.9994 302.8501 0000363 060.8163 103.1157 12.62267940104615
0 GLOBALSTAR M091
1 37741U 11033C   13285.61641682 -.00000092  00000-0  68080-4 0  6897
2 37741 051.9993 299.4796 0000374 057.9799 098.9881 12.62268157104756
0 GLOBALSTAR M091
1 37741U 11033C   13287.09566549 -.00000104  00000-0  14233-6 0  6908
2 37741 051.9992 294.9757 0000385 057.2211 344.9654 12.62268363104948
0 GLOBALSTAR M091
1 37741U 11033C   13288.12200927 -.00000108  00000-0 -24329-4 0  6919
2 37741 051.9993 291.8509 0000426 050.9367 337.3936 12.62268366105075
0 GLOBALSTAR M091
1 37741U 11033C   13289.16180494 -.00000120  00000-0 -88282-4 0  6923
2 37741 051.9994 288.6850 0000427 053.0508 022.5810 12.62268258105200
0 GLOBALSTAR M091
1 37741U 11033C   13290.52418068 -.00000102  00000-0  91809-5 0  6936
2 37741 051.9994 284.5372 0000448 051.5015 098.0025 12.62268190105372
0 GLOBALSTAR M091
1 37741U 11033C   13291.55548119 -.00000097  00000-0  36546-4 0  6941
2 37741 051.9995 281.3974 0000479 049.5688 108.6145 12.62268078105504
0 GLOBALSTAR M091
1 37741U 11033C   13293.12107796 -.00000080  00000-0  13228-3 0  6952
2 37741 051.9996 276.6310 0000524 048.3853 027.5883 12.62268018105702
0 GLOBALSTAR M091
1 37741U 11033C   13294.48317941 -.00000080  00000-0  13094-3 0  6969
2 37741 051.9995 272.4842 0000556 048.2124 100.3846 12.62268029105879
0 GLOBALSTAR M091
1 37741U 11033C   13295.87882887 -.00000086  00000-0  98749-4 0  6977
2 37741 051.9995 268.2352 0000573 048.2246 325.5175 12.62268163106058
